[{"OBJECT_NAME":"ONEWEB-0082","OBJECT_ID":"2020-020AE","EPOCH":"2025-08-25T14:33:58.035744","MEAN_MOTION":13.11420711,"ECCENTRICITY":0.00017668,"INCLINATION":87.8783,"RA_OF_ASC_NODE":79.9307,"ARG_OF_PERICENTER":80.3689,"MEAN_ANOMALY":279.7639,"EPHEMERIS_TYPE":0,"CLASSIFICATION_TYPE":"U","NORAD_CAT_ID":45452,"ELEMENT_SET_NO":999,"REV_AT_EPOCH":26393,"BSTAR":-0.0010600222,"MEAN_MOTION_DOT":-3.63e-6,"MEAN_MOTION_DDOT":0},{"OBJECT_NAME":"ONEWEB-0050","OBJECT_ID":"2020-020AF","EPOCH":"2025-08-25T12:26:38.226336","MEAN_MOTION":14.90983622,"ECCENTRICITY":0.00018147,"INCLINATION":87.9943,"RA_OF_ASC_NODE":277.7408,"ARG_OF_PERICENTER":33.2131,"MEAN_ANOMALY":326.9211,"EPHEMERIS_TYPE":0,"CLASSIFICATION_TYPE":"U","NORAD_CAT_ID":45453,"ELEMENT_SET_NO":999,"REV_AT_EPOCH":29636,"BSTAR":0.00017451207,"MEAN_MOTION_DOT":1.748e-5,"MEAN_MOTION_DDOT":0},{"OBJECT_NAME":"ONEWEB-0034","OBJECT_ID":"2020-020AG","EPOCH":"2025-08-25T15:04:29.214624","MEAN_MOTION":13.11417173,"ECCENTRICITY":0.00017049,"INCLINATION":87.8784,"RA_OF_ASC_NODE":79.9469,"ARG_OF_PERICENTER":84.7647,"MEAN_ANOMALY":275.3675,"EPHEMERIS_TYPE":0,"CLASSIFICATION_TYPE":"U","NORAD_CAT_ID":45454,"ELEMENT_SET_NO":999,"REV_AT_EPOCH":26385,"BSTAR":0.001541351,"MEAN_MOTION_DOT":5.59e-6,"MEAN_MOTION_DDOT":0},{"OBJECT_NAME":"ONEWEB-0060","OBJECT_ID":"2020-020AH","EPOCH":"2025-08-25T14:22:58.961856","MEAN_MOTION":13.11420814,"ECCENTRICITY":0.00025075,"INCLINATION":87.8779,"RA_OF_ASC_NODE":79.9809,"ARG_OF_PERICENTER":59.102,"MEAN_ANOMALY":301.0354,"EPHEMERIS_TYPE":0,"CLASSIFICATION_TYPE":"U","NORAD_CAT_ID":45455,"ELEMENT_SET_NO":999,"REV_AT_EPOCH":26380,"BSTAR":-0.0012896565,"MEAN_MOTION_DOT":-4.44e-6,"MEAN_MOTION_DDOT":0},{"OBJECT_NAME":"ONEWEB-0086","OBJECT_ID":"2020-020AJ","EPOCH":"2025-08-25T13:52:27.582528","MEAN_MOTION":13.11415935,"ECCENTRICITY":0.00016458,"INCLINATION":87.8784,"RA_OF_ASC_NODE":79.9543,"ARG_OF_PERICENTER":59.2524,"MEAN_ANOMALY":300.8766,"EPHEMERIS_TYPE":0,"CLASSIFICATION_TYPE":"U","NORAD_CAT_ID":45456,"ELEMENT_SET_NO":999,"REV_AT_EPOCH":26386,"BSTAR":-0.00061712627,"MEAN_MOTION_DOT":-2.06e-6,"MEAN_MOTION_DDOT":0},{"OBJECT_NAME":"ONEWEB-0088","OBJECT_ID":"2020-020AK","EPOCH":"2025-08-25T13:20:43.152864","MEAN_MOTION":13.11415569,"ECCENTRICITY":0.00018526,"INCLINATION":87.8781,"RA_OF_ASC_NODE":79.9051,"ARG_OF_PERICENTER":86.0941,"MEAN_ANOMALY":274.0399,"EPHEMERIS_TYPE":0,"CLASSIFICATION_TYPE":"U","NORAD_CAT_ID":45457,"ELEMENT_SET_NO":999,"REV_AT_EPOCH":26379,"BSTAR":0.0014111774,"MEAN_MOTION_DOT":5.13e-6,"MEAN_MOTION_DDOT":0},{"OBJECT_NAME":"ONEWEB-0102","OBJECT_ID":"2020-100A","EPOCH":"2025-08-25T13:31:08.902272","MEAN_MOTION":13.1244121,"ECCENTRICITY":0.00015812,"INCLINATION":87.8869,"RA_OF_ASC_NODE":49.4327,"ARG_OF_PERICENTER":93.9397,"MEAN_ANOMALY":266.1912,"EPHEMERIS_TYPE":0,"CLASSIFICATION_TYPE":"U","NORAD_CAT_ID":47258,"ELEMENT_SET_NO":999,"REV_AT_EPOCH":22595,"BSTAR":0.00022368895,"MEAN_MOTION_DOT":9.3e-7,"MEAN_MOTION_DDOT":0},{"OBJECT_NAME":"ONEWEB-0109","OBJECT_ID":"2020-100B","EPOCH":"2025-08-25T11:53:02.433120","MEAN_MOTION":13.12441791,"ECCENTRICITY":0.00016034,"INCLINATION":87.8862,"RA_OF_ASC_NODE":49.4156,"ARG_OF_PERICENTER":92.1187,"MEAN_ANOMALY":268.0125,"EPHEMERIS_TYPE":0,"CLASSIFICATION_TYPE":"U","NORAD_CAT_ID":47259,"ELEMENT_SET_NO":999,"REV_AT_EPOCH":22577,"BSTAR":-0.00066701272,"MEAN_MOTION_DOT":-2.27e-6,"MEAN_MOTION_DDOT":0},{"OBJECT_NAME":"ONEWEB-0110","OBJECT_ID":"2020-100C","EPOCH":"2025-08-25T12:30:23.519520","MEAN_MOTION":13.12442549,"ECCENTRICITY":0.00017192,"INCLINATION":87.8869,"RA_OF_ASC_NODE":49.3944,"ARG_OF_PERICENTER":81.9419,"MEAN_ANOMALY":278.1905,"EPHEMERIS_TYPE":0,"CLASSIFICATION_TYPE":"U","NORAD_CAT_ID":47260,"ELEMENT_SET_NO":999,"REV_AT_EPOCH":22594,"BSTAR":-0.00037223269,"MEAN_MOTION_DOT":-1.21e-6,"MEAN_MOTION_DDOT":0},{"OBJECT_NAME":"ONEWEB-0111","OBJECT_ID":"2020-100D","EPOCH":"2025-08-25T11:25:00.670080","MEAN_MOTION":13.12441529,"ECCENTRICITY":0.00017184,"INCLINATION":87.8871,"RA_OF_ASC_NODE":49.42,"ARG_OF_PERICENTER":91.9403,"MEAN_ANOMALY":268.1922,"EPHEMERIS_TYPE":0,"CLASSIFICATION_TYPE":"U","NORAD_CAT_ID":47261,"ELEMENT_SET_NO":999,"REV_AT_EPOCH":22577,"BSTAR":0.0010231976,"MEAN_MOTION_DOT":3.81e-6,"MEAN_MOTION_DDOT":0},{"OBJECT_NAME":"ONEWEB-0114","OBJECT_ID":"2020-100E","EPOCH":"2025-08-25T12:09:22.811328","MEAN_MOTION":13.1244254,"ECCENTRICITY":0.00015468,"INCLINATION":87.8863,"RA_OF_ASC_NODE":49.4084,"ARG_OF_PERICENTER":100.6408,"MEAN_ANOMALY":259.4895,"EPHEMERIS_TYPE":0,"CLASSIFICATION_TYPE":"U","NORAD_CAT_ID":47262,"ELEMENT_SET_NO":999,"REV_AT_EPOCH":22573,"BSTAR":-0.0012422491,"MEAN_MOTION_DOT":-4.34e-6,"MEAN_MOTION_DDOT":0},{"OBJECT_NAME":"ONEWEB-0117","OBJECT_ID":"2020-100F","EPOCH":"2025-08-25T11:57:42.347520","MEAN_MOTION":13.12442395,"ECCENTRICITY":0.00017559,"INCLINATION":87.8873,"RA_OF_ASC_NODE":49.407,"ARG_OF_PERICENTER":90.023,"MEAN_ANOMALY":270.11,"EPHEMERIS_TYPE":0,"CLASSIFICATION_TYPE":"U","NORAD_CAT_ID":47263,"ELEMENT_SET_NO":999,"REV_AT_EPOCH":22574,"BSTAR":-0.00077454449,"MEAN_MOTION_DOT":-2.66e-6,"MEAN_MOTION_DDOT":0},{"OBJECT_NAME":"ONEWEB-0118","OBJECT_ID":"2020-100G","EPOCH":"2025-08-25T12:44:25.287936","MEAN_MOTION":13.12442639,"ECCENTRICITY":0.00018073,"INCLINATION":87.8871,"RA_OF_ASC_NODE":49.4005,"ARG_OF_PERICENTER":102.8352,"MEAN_ANOMALY":257.2978,"EPHEMERIS_TYPE":0,"CLASSIFICATION_TYPE":"U","NORAD_CAT_ID":47264,"ELEMENT_SET_NO":999,"REV_AT_EPOCH":22594,"BSTAR":0.0005396698,"MEAN_MOTION_DOT":2.07e-6,"MEAN_MOTION_DDOT":0},{"OBJECT_NAME":"ONEWEB-0119","OBJECT_ID":"2020-100H","EPOCH":"2025-08-25T13:24:08.701056","MEAN_MOTION":13.12441908,"ECCENTRICITY":0.00016823,"INCLINATION":87.8863,"RA_OF_ASC_NODE":49.433,"ARG_OF_PERICENTER":90.3647,"MEAN_ANOMALY":269.7675,"EPHEMERIS_TYPE":0,"CLASSIFICATION_TYPE":"U","NORAD_CAT_ID":47265,"ELEMENT_SET_NO":999,"REV_AT_EPOCH":22592,"BSTAR":0.0006080416,"MEAN_MOTION_DOT":2.31e-6,"MEAN_MOTION_DDOT":0},{"OBJECT_NAME":"ONEWEB-0120","OBJECT_ID":"2020-100J","EPOCH":"2025-08-25T12:07:14.889216","MEAN_MOTION":13.12443051,"ECCENTRICITY":0.00016515,"INCLINATION":87.8873,"RA_OF_ASC_NODE":49.4435,"ARG_OF_PERICENTER":94.5959,"MEAN_ANOMALY":265.5358,"EPHEMERIS_TYPE":0,"CLASSIFICATION_TYPE":"U","NORAD_CAT_ID":47266,"ELEMENT_SET_NO":999,"REV_AT_EPOCH":22594,"BSTAR":-0.00097237997,"MEAN_MOTION_DOT":-3.37e-6,"MEAN_MOTION_DDOT":0},{"OBJECT_NAME":"ONEWEB-0121","OBJECT_ID":"2020-100K","EPOCH":"2025-08-25T11:50:42.112608","MEAN_MOTION":13.12441577,"ECCENTRICITY":0.00017394,"INCLINATION":87.8865,"RA_OF_ASC_NODE":49.4132,"ARG_OF_PERICENTER":88.3533,"MEAN_ANOMALY":271.7795,"EPHEMERIS_TYPE":0,"CLASSIFICATION_TYPE":"U","NORAD_CAT_ID":47267,"ELEMENT_SET_NO":999,"REV_AT_EPOCH":22585,"BSTAR":-0.00037243115,"MEAN_MOTION_DOT":-1.21e-6,"MEAN_MOTION_DDOT":0}]
