ONEWEB-0082             
1 45452U 20020AE  25237.60692171 -.00000363  00000+0 -10600-2 0  9997
2 45452  87.8783  79.9307 0001766  80.3689 279.7639 13.11420711263939
ONEWEB-0050             
1 45453U 20020AF  25237.51849799  .00001748  00000+0  17451-3 0  9996
2 45453  87.9943 277.7408 0001814  33.2131 326.9211 14.90983622296369
ONEWEB-0034             
1 45454U 20020AG  25237.62811591  .00000559  00000+0  15414-2 0  9993
2 45454  87.8784  79.9469 0001704  84.7647 275.3675 13.11417173263856
ONEWEB-0060             
1 45455U 20020AH  25237.59929354 -.00000444  00000+0 -12897-2 0  9994
2 45455  87.8779  79.9809 0002507  59.1020 301.0354 13.11420814263804
ONEWEB-0086             
1 45456U 20020AJ  25237.57809702 -.00000206  00000+0 -61713-3 0  9995
2 45456  87.8784  79.9543 0001645  59.2524 300.8766 13.11415935263866
ONEWEB-0088             
1 45457U 20020AK  25237.55605501  .00000513  00000+0  14112-2 0  9994
2 45457  87.8781  79.9051 0001852  86.0941 274.0399 13.11415569263798
ONEWEB-0102             
1 47258U 20100A   25237.56329748  .00000093  00000+0  22369-3 0  9998
2 47258  87.8869  49.4327 0001581  93.9397 266.1912 13.12441210225957
ONEWEB-0109             
1 47259U 20100B   25237.49516705 -.00000227  00000+0 -66701-3 0  9991
2 47259  87.8862  49.4156 0001603  92.1187 268.0125 13.12441791225775
ONEWEB-0110             
1 47260U 20100C   25237.52110555 -.00000121  00000+0 -37223-3 0  9990
2 47260  87.8869  49.3944 0001719  81.9419 278.1905 13.12442549225949
ONEWEB-0111             
1 47261U 20100D   25237.47570220  .00000381  00000+0  10232-2 0  9990
2 47261  87.8871  49.4200 0001718  91.9403 268.1922 13.12441529225778
ONEWEB-0114             
1 47262U 20100E   25237.50651402 -.00000434  00000+0 -12422-2 0  9991
2 47262  87.8863  49.4084 0001546 100.6408 259.4895 13.12442540225734
ONEWEB-0117             
1 47263U 20100F   25237.49840680 -.00000266  00000+0 -77454-3 0  9998
2 47263  87.8873  49.4070 0001755  90.0230 270.1100 13.12442395225746
ONEWEB-0118             
1 47264U 20100G   25237.53084824  .00000207  00000+0  53967-3 0  9990
2 47264  87.8871  49.4005 0001807 102.8352 257.2978 13.12442639225940
ONEWEB-0119             
1 47265U 20100H   25237.55843404  .00000231  00000+0  60804-3 0  9995
2 47265  87.8863  49.4330 0001682  90.3647 269.7675 13.12441908225920
ONEWEB-0120             
1 47266U 20100J   25237.50503344 -.00000337  00000+0 -97238-3 0  9997
2 47266  87.8873  49.4435 0001651  94.5959 265.5358 13.12443051225941
ONEWEB-0121             
1 47267U 20100K   25237.49354297 -.00000121  00000+0 -37243-3 0  9998
2 47267  87.8865  49.4132 0001739  88.3533 271.7795 13.12441577225858
